RSP-03                  
1 65732U 98067XL  26036.72723958  .00782112  28519-3  16707-2 0  9995
2 65732  51.6175 211.8577 0006247 274.4192  85.6103 15.98005384 21851
YOTSUBA-KULOVER         
1 65941U 98067XN  26036.72229396  .00156224  00000+0  12468-2 0  9994
2 65941  51.6244 221.6848 0004119 232.1439 127.9186 15.70112599 18462
BOTAN                   
1 65942U 98067XP  26036.68487642  .00396212  00000+0  17752-2 0  9994
2 65942  51.6194 218.3956 0005654 257.2305 102.8066 15.82518268 18505
E-KAGAKU-1              
1 65943U 98067XQ  26036.72290565  .00154212  00000+0  12359-2 0  9996
2 65943  51.6264 221.6998 0003346 248.6599 111.4041 15.70022398 18467
HRC MONOBLOCK CAMERA    
1 66052U 98067XR  26036.74432924  .00059970  00000+0  75893-3 0  9995
2 66052  51.6280 226.3440 0000630 351.3763   8.7218 15.58916515 17405
HTV-X1                  
1 66174U 25241A   26036.50214262  .00012860  00000+0  24571-3 0  9995
2 66174  51.6316 231.4727 0011154  67.3664 292.8503 15.48414003   513
SZ-21 MODULE            
1 66515U 25246C   26036.38462474  .00044396  00000+0  42095-3 0  9995
2 66515  41.4761  41.8476 0003080 276.8900  83.1590 15.66107693 13005
SHENZHOU-22             
1 66645U 25272A   26036.70484920  .00033602  00000+0  41781-3 0  9993
2 66645  41.4677  42.5669 0005508   7.6510 352.4412 15.59253081267642
SOYUZ-MS 28             
1 66664U 25275A   26036.50214262  .00012860  00000+0  24571-3 0  9996
2 66664  51.6316 231.4727 0011155  67.3664 292.8503 15.48414003551340
DUPLEX                  
1 66906U 98067XS  26036.77622183  .00046057  00000+0  70289-3 0  9990
2 66906  51.6288 228.8053 0001412  81.2832 278.8319 15.53973578 10168
1998-067XT              
1 66907U 98067XT  26036.77775358  .00130219  00000+0  15034-2 0  9994
2 66907  51.6265 227.3140 0002212 199.3308 160.7602 15.60974670 10181
1998-067XU              
1 66908U 98067XU  26036.77723451  .00132580  00000+0  15278-2 0  9995
2 66908  51.6270 227.3086 0002035 199.5208 160.5708 15.61013242 10186
